NORAD_CAT_ID,OBJECT_NAME,OBJECT_TYPE,EPOCH,MEAN_MOTION,ECCENTRICITY,INCLINATION,RA_OF_ASC_NODE,ARG_OF_PERICENTER,MEAN_ANOMALY,BSTAR,MEAN_MOTION_DOT,MEAN_MOTION_DDOT,TLE_LINE0,TLE_LINE1,TLE_LINE2,SEMIMAJOR_AXIS,PERIOD,APOGEE,PERIGEE,DECAYED
52459.0,STARLINK-3856,PAYLOAD,2022-05-23 14:00:01,15.7322906,0.0002351,53.2157,181.3038,22.7067,140.6284,-0.0004412,-0.00062171,0.0,0 STARLINK-3856,1 52459U 22049J   22143.58334491 -.00062171  00000-0 -44120-3 0  9994,2 52459  53.2157 181.3038 0002351  22.7067 140.6284 15.73229060  1303,6727.812,91.531,351.259,348.096,0.0
52459.0,STARLINK-3856,PAYLOAD,2022-05-23 16:00:00,15.73235553,0.0002291,53.2155,180.8909,21.4491,254.1214,-0.00074019,-0.00103407,0.0,0 STARLINK-3856,1 52459U 22049J   22143.66667824 -.00103407  00000-0 -74019-3 0  9990,2 52459  53.2155 180.8909 0002291  21.4491 254.1214 15.73235553  2884,6727.794,91.531,351.2,348.117,0.0
52459.0,STARLINK-3856,PAYLOAD,2022-05-23 20:00:01,15.73438178,0.0002348,53.2165,180.0667,21.4964,118.4961,-0.0049668,-0.0065296,0.0,0 STARLINK-3856,1 52459U 22049J   22143.83334491 -.00652960  00000-0 -49668-2 0  9994,2 52459  53.2165 180.0667 0002348  21.4964 118.4961 15.73438178  2919,6727.215999999999,91.519,350.661,347.50199999999984,0.0
52459.0,STARLINK-3856,PAYLOAD,2022-05-23 22:00:01,15.73219835,0.0002347,53.2167,179.6539,24.6512,227.7045,-0.0026364,-0.00355794,0.0,0 STARLINK-3856,1 52459U 22049J   22143.91668981 -.00355794  00000-0 -26364-2 0  9990,2 52459  53.2167 179.6539 0002347  24.6512 227.7045 15.73219835  1302,6727.839,91.532,351.283,348.125,0.0
52459.0,STARLINK-3856,PAYLOAD,2022-05-24 03:01:51,15.73204289,0.0002628,53.216,178.6137,67.9832,292.1467,3.0088e-05,3.603e-05,0.0,0 STARLINK-3856,1 52459U 22049J   22144.12629373  .00003603  00000-0  30088-4 0  9993,2 52459  53.2160 178.6137 0002628  67.9832 292.1467 15.73204289  2969,6727.8830000000025,91.533,351.516,347.98,0.0
52459.0,STARLINK-3856,PAYLOAD,2022-05-24 13:42:12,15.73217854,0.0001996,53.2158,176.4127,38.3697,321.7465,4.4638e-05,5.653e-05,0.0,0 STARLINK-3856,1 52459U 22049J   22144.57098347  .00005653  00000-0  44638-4 0  9996,2 52459  53.2158 176.4127 0001996  38.3697 321.7465 15.73217854  2878,6727.844,91.532,351.052,348.366,0.0
52459.0,STARLINK-3856,PAYLOAD,2022-05-24 22:00:00,15.73155216,0.0002125,53.2161,174.7037,22.1052,136.994,0.0004592,0.00064199,0.0,0 STARLINK-3856,1 52459U 22049J   22144.91667824  .00064199  00000-0  45920-3 0  9990,2 52459  53.2161 174.7037 0002125  22.1052 136.9940 15.73155216  3085,6728.023,91.536,351.3180000000001,348.458,0.0
52459.0,STARLINK-3856,PAYLOAD,2022-05-25 06:00:00,15.731889,0.0002354,53.2162,173.0554,26.739,221.2623,-0.0001491,-0.00021486,0.0,0 STARLINK-3856,1 52459U 22049J   22145.25001157 -.00021486  00000-0 -14910-3 0  9998,2 52459  53.2162 173.0554 0002354  26.7390 221.2623 15.73188900  3139,6727.927,91.534,351.376,348.208,0.0
52459.0,STARLINK-3856,PAYLOAD,2022-05-25 14:00:01,15.73169344,0.0002527,53.2155,171.4069,25.2485,311.6519,0.00055804,0.00078334,0.0,0 STARLINK-3856,1 52459U 22049J   22145.58334491  .00078334  00000-0  55804-3 0  9993,2 52459  53.2155 171.4069 0002527  25.2485 311.6519 15.73169344  1301,6727.983,91.535,351.548,348.147,0.0
52459.0,STARLINK-3856,PAYLOAD,2022-05-25 22:00:00,15.73219793,0.0002153,53.2155,169.7554,26.4087,39.4322,-5.7203e-06,-1.425e-05,0.0,0 STARLINK-3856,1 52459U 22049J   22145.91667824 -.00001425  00000-0 -57203-5 0  9995,2 52459  53.2155 169.7554 0002153  26.4087  39.4322 15.73219793  3242,6727.839,91.532,351.152,348.255,0.0
52459.0,STARLINK-3856,PAYLOAD,2022-05-26 05:20:43,15.73190675,0.0002477,53.2157,168.2408,19.4673,340.6441,-9.1227e-06,-1.902e-05,0.0,0 STARLINK-3856,1 52459U 22049J   22146.22272189 -.00001902  00000-0 -91227-5 0  9990,2 52459  53.2157 168.2408 0002477  19.4673 340.6441 15.73190675  3299,6727.922,91.534,351.45300000000015,348.12,0.0
52459.0,STARLINK-3856,PAYLOAD,2022-05-26 12:58:06,15.73231096,0.0001962,53.2156,166.6683,30.541,329.5724,0.0001337,0.00018209,0.0,0 STARLINK-3856,1 52459U 22049J   22146.54035234  .00018209  00000-0  13370-3 0  9990,2 52459  53.2156 166.6683 0001962  30.5410 329.5724 15.73231096  3345,6727.807,91.531,350.992,348.352,0.0
52459.0,STARLINK-3856,PAYLOAD,2022-05-26 14:00:01,15.73188331,0.0002325,53.2153,166.4583,18.2516,225.4867,0.00021276,0.0002933,0.0,0 STARLINK-3856,1 52459U 22049J   22146.58334491  .00029330  00000-0  21276-3 0  9992,2 52459  53.2153 166.4583 0002325  18.2516 225.4867 15.73188331  1302,6727.928000000001,91.534,351.358,348.22900000000016,0.0
52459.0,STARLINK-3856,PAYLOAD,2022-05-26 20:00:01,15.73192189,0.0002213,53.2159,165.2194,21.698,198.736,-0.00016709,-0.00023999,0.0,0 STARLINK-3856,1 52459U 22049J   22146.83334491 -.00023999  00000-0 -16709-3 0  9992,2 52459  53.2159 165.2194 0002213  21.6980 198.7360 15.73192189  3388,6727.917,91.534,351.271,348.2940000000001,0.0
52459.0,STARLINK-3856,PAYLOAD,2022-05-26 22:00:00,15.73158539,0.0002169,53.2156,164.8066,23.216,309.4583,0.00026088,0.00036087,0.0,0 STARLINK-3856,1 52459U 22049J   22146.91667824  .00036087  00000-0  26088-3 0  9991,2 52459  53.2156 164.8066 0002169  23.2160 309.4583 15.73158539  1305,6728.013000000001,91.536,351.338,348.4190000000001,0.0
52459.0,STARLINK-3856,PAYLOAD,2022-05-27 14:00:01,15.73157882,0.0002413,53.215,161.5097,20.7461,129.6961,0.00029533,0.00040958,0.0,0 STARLINK-3856,1 52459U 22049J   22147.58334491  .00040958  00000-0  29533-3 0  9996,2 52459  53.2150 161.5097 0002413  20.7461 129.6961 15.73157882  1307,6728.015,91.536,351.504,348.25699999999995,0.0
52459.0,STARLINK-3856,PAYLOAD,2022-05-27 16:00:00,15.73275144,0.0002351,53.215,161.0965,24.1288,238.6014,-0.00074282,-0.00103943,0.0,0 STARLINK-3856,1 52459U 22049J   22147.66667824 -.00103943  00000-0 -74282-3 0  9991,2 52459  53.2150 161.0965 0002351  24.1288 238.6014 15.73275144  3519,6727.681,91.529,351.12800000000016,347.964,0.0
52459.0,STARLINK-3856,PAYLOAD,2022-05-27 22:00:01,15.73181058,0.0002102,53.215,159.8579,23.0431,216.5016,0.0004947,0.00069329,0.0,0 STARLINK-3856,1 52459U 22049J   22147.91668981  .00069329  00000-0  49470-3 0  9992,2 52459  53.2150 159.8579 0002102  23.0431 216.5016 15.73181058  1309,6727.949000000001,91.534,351.228,348.4,0.0
52459.0,STARLINK-3856,PAYLOAD,2022-05-28 06:00:02,15.73235839,0.0002183,53.2151,158.21,20.2875,308.2179,-0.00020846,-0.00029822,0.0,0 STARLINK-3856,1 52459U 22049J   22148.25002315 -.00029822  00000-0 -20846-3 0  9995,2 52459  53.2151 158.2100 0002183  20.2875 308.2179 15.73235839  3615,6727.793000000002,91.531,351.12699999999984,348.189,0.0
52459.0,STARLINK-3856,PAYLOAD,2022-05-28 14:00:01,15.73247879,0.0002339,53.2149,156.5607,18.6444,38.7522,0.00029817,0.00041521,0.0,0 STARLINK-3856,1 52459U 22049J   22148.58334491  .00041521  00000-0  29817-3 0  9999,2 52459  53.2149 156.5607 0002339  18.6444  38.7522 15.73247879  3660,6727.759,91.53,351.19699999999995,348.05,0.0
52459.0,STARLINK-3856,PAYLOAD,2022-05-28 22:00:00,15.73272537,0.0002182,53.2152,154.9089,26.3869,120.0242,-0.00037099,-0.00052531,0.0,0 STARLINK-3856,1 52459U 22049J   22148.91667824 -.00052531  00000-0 -37099-3 0  9991,2 52459  53.2152 154.9089 0002182  26.3869 120.0242 15.73272537  1305,6727.688,91.529,351.021,348.085,0.0
52459.0,STARLINK-3856,PAYLOAD,2022-05-29 06:00:02,15.73226122,0.0002401,53.2154,153.261,28.1719,207.2678,-0.00090496,-0.00125907,0.0,0 STARLINK-3856,1 52459U 22049J   22149.25002315 -.00125907  00000-0 -90496-3 0  9995,2 52459  53.2154 153.2610 0002401  28.1719 207.2678 15.73226122  3769,6727.821,91.532,351.301,348.07,0.0
52459.0,STARLINK-3856,PAYLOAD,2022-05-29 14:00:01,15.731466500000002,0.0002396,53.2149,151.6116,23.4491,300.8218,-0.00051345,-0.00071915,0.0,0 STARLINK-3856,1 52459U 22049J   22149.58334491 -.00071915  00000-0 -51345-3 0  9993,2 52459  53.2149 151.6116 0002396  23.4491 300.8218 15.73146650  1309,6728.047,91.536,351.524,348.3,0.0
52459.0,STARLINK-3856,PAYLOAD,2022-05-29 20:00:01,15.73064225,0.000221,53.215,150.3731,28.1404,272.7737,0.00038587,0.00053569,0.0,0 STARLINK-3856,1 52459U 22049J   22149.83334491  .00053569  00000-0  38587-3 0  9997,2 52459  53.2150 150.3731 0002210  28.1404 272.7737 15.73064225  3853,6728.281999999997,91.541,351.634,348.66,0.0
52459.0,STARLINK-3856,PAYLOAD,2022-05-29 22:00:00,15.73052235,0.000217,53.215,149.9605,29.9974,23.1177,0.00066571,0.00093262,0.0,0 STARLINK-3856,1 52459U 22049J   22149.91667824  .00093262  00000-0  66571-3 0  9993,2 52459  53.2150 149.9605 0002170  29.9974  23.1177 15.73052235  1305,6728.316,91.542,351.642,348.721,0.0
52459.0,STARLINK-3856,PAYLOAD,2022-05-30 12:00:00,15.73185856,0.0002361,53.215,147.0766,23.4874,95.0404,0.00053439,0.0007501,0.0,0 STARLINK-3856,1 52459U 22049J   22150.50001157  .00075010  00000-0  53439-3 0  9991,2 52459  53.2150 147.0766 0002361  23.4874  95.0404 15.73185856  3963,6727.935,91.534,351.389,348.212,0.0
52459.0,STARLINK-3856,PAYLOAD,2022-05-30 14:00:01,15.7322068,0.0002299,53.215,146.6636,23.1775,207.5746,0.00014577,0.00019905,0.0,0 STARLINK-3856,1 52459U 22049J   22150.58334491  .00019905  00000-0  14577-3 0  9990,2 52459  53.2150 146.6636 0002299  23.1775 207.5746 15.73220680  1301,6727.8359999999975,91.532,351.24800000000016,348.154,0.0
52459.0,STARLINK-3856,PAYLOAD,2022-05-30 22:00:00,15.73248918,0.0002175,53.2156,145.0121,29.0672,290.6451,-9.437e-05,-0.00013873,0.0,0 STARLINK-3856,1 52459U 22049J   22150.91667824 -.00013873  00000-0 -94370-4 0  9996,2 52459  53.2156 145.0121 0002175  29.0672 290.6451 15.73248918  4025,6727.755999999999,91.53,351.084,348.157,0.0
52459.0,STARLINK-3856,PAYLOAD,2022-05-31 05:47:40,15.73242863,0.0002619,53.2152,143.4056,43.8115,316.3113,0.00023976,0.00033226,0.0,0 STARLINK-3856,1 52459U 22049J   22151.24144134  .00033226  00000-0  23976-3 0  9992,2 52459  53.2152 143.4056 0002619  43.8115 316.3113 15.73242863  3921,6727.773,91.531,351.4,347.876,0.0
